KUIPER-00157            
1 65970U 25228Z   25345.29162287  .00057682  00000+0  16239-2 0  9992
2 65970  51.8810  27.6020 0007415  21.0238 339.1052 15.35881989 10193
